{"fetched_at":"2026-03-29T16:36:15Z","count":15609,"tles":[{"name":"STARLINK-5748","line1":"1 55604U 23020AM  26087.86147475  .00002022  00000+0  85033-4 0  9990","line2":"2 55604  43.0026 231.0497 0001826 266.6592  93.4051 15.26749692172144","category":"Starlink"}]}